STARLINK-36520          
1 67466U 26008X   26035.25004630 -.02075822  00000+0 -21086-1 0  9996
2 67466  42.9995  36.4041 0001198 258.4681  17.6512 15.67640911  4422
STARLINK-36425          
1 67467U 26008Y   26035.25004630 -.02025117  00000+0 -28408-1 0  9994
2 67467  42.9996  36.5845 0000571 273.1412 290.0652 15.59469555  4423
STARLINK-36414          
1 67468U 26008Z   26035.25004630 -.02081089  00000+0 -22742-1 0  9990
2 67468  43.0003  36.1570 0001277 270.3520 104.1695 15.65867347  4429
STARLINK-36441          
1 67469U 26008AA  26035.25004630 -.02074219  00000+0 -25803-1 0  9999
2 67469  42.9999  36.2148 0001262 266.7873  83.5790 15.62627167  4425
STARLINK-36454          
1 67470U 26008AB  26035.25004630 -.02077753  00000+0 -24137-1 0  9996
2 67470  42.9998  36.1708 0001255 272.0720  96.1029 15.64349114  4420
STARLINK-36334          
1 67471U 26008AC  26035.25004630 -.02082743  00000+0 -20947-1 0  9997
2 67471  43.0002  36.1179 0001205 271.6559 118.0058 15.67891988  4421
STARLINK-36269          
1 67472U 26008AD  26035.25004630 -.02105923  00000+0 -23062-1 0  9995
2 67472  43.0001  36.1342 0001602 253.1932 129.3654 15.65854140  4440
STARLINK-36408          
1 67473U 26008AE  26035.25004630 -.02079154  00000+0 -25141-1 0  9992
2 67473  43.0000  36.1773 0001256 272.4533  92.4987 15.63349865  4444
ALSAT-3A                
1 67474U 26009A   26035.31221174  .00007653  00000+0  32423-3 0  9999
2 67474  97.4685 109.9926 0012111 185.1081 175.0034 15.23371103  3048
CZ-2C R/B               
1 67475U 26009B   26035.25148586  .00004142  00000+0  27917-3 0  9990
2 67475  97.1770 108.2552 0100190 153.3090 207.3344 15.03090371  3057
TIANQI-37               
1 67476U 26010A   26035.31957025  .00000465  00000+0  31514-3 0  9998
2 67476  44.9832 314.6875 0013007  49.8880 310.3096 14.13524868  2763
TIANQI-38               
1 67477U 26010B   26035.31620185  .00000609  00000+0  38856-3 0  9999
2 67477  44.9794 314.6621 0011807  55.0666 305.1280 14.13902104  2767
