CCSDS_OMM_VERS = 2.0
CREATION_DATE  = 
ORIGINATOR     = 

OBJECT_NAME    = STARLINK-36520
OBJECT_ID      = 2026-008X
CENTER_NAME    = EARTH
REF_FRAME      = TEME
TIME_SYSTEM    = UTC
MEAN_ELEMENT_THEORY = SGP/SGP4

EPOCH          = 2026-02-04T06:00:04.000320
MEAN_MOTION    = 15.67640911
ECCENTRICITY   = .00011988
INCLINATION    = 42.9995
RA_OF_ASC_NODE = 36.4041
ARG_OF_PERICENTER = 258.4681
MEAN_ANOMALY   = 17.6512

EPHEMERIS_TYPE = 0
CLASSIFICATION_TYPE = U
NORAD_CAT_ID   = 67466
ELEMENT_SET_NO = 999
REV_AT_EPOCH   = 442
BSTAR          = -.21085674E-1
MEAN_MOTION_DOT = -.2075822E-1
MEAN_MOTION_DDOT = 0

CCSDS_OMM_VERS = 2.0
CREATION_DATE  = 
ORIGINATOR     = 

OBJECT_NAME    = STARLINK-36425
OBJECT_ID      = 2026-008Y
CENTER_NAME    = EARTH
REF_FRAME      = TEME
TIME_SYSTEM    = UTC
MEAN_ELEMENT_THEORY = SGP/SGP4

EPOCH          = 2026-02-04T06:00:04.000320
MEAN_MOTION    = 15.59469555
ECCENTRICITY   = .00005715
INCLINATION    = 42.9996
RA_OF_ASC_NODE = 36.5845
ARG_OF_PERICENTER = 273.1412
MEAN_ANOMALY   = 290.0652

EPHEMERIS_TYPE = 0
CLASSIFICATION_TYPE = U
NORAD_CAT_ID   = 67467
ELEMENT_SET_NO = 999
REV_AT_EPOCH   = 442
BSTAR          = -.28408487E-1
MEAN_MOTION_DOT = -.2025117E-1
MEAN_MOTION_DDOT = 0

CCSDS_OMM_VERS = 2.0
CREATION_DATE  = 
ORIGINATOR     = 

OBJECT_NAME    = STARLINK-36414
OBJECT_ID      = 2026-008Z
CENTER_NAME    = EARTH
REF_FRAME      = TEME
TIME_SYSTEM    = UTC
MEAN_ELEMENT_THEORY = SGP/SGP4

EPOCH          = 2026-02-04T06:00:04.000320
MEAN_MOTION    = 15.65867347
ECCENTRICITY   = .00012775
INCLINATION    = 43.0003
RA_OF_ASC_NODE = 36.1570
ARG_OF_PERICENTER = 270.3520
MEAN_ANOMALY   = 104.1695

EPHEMERIS_TYPE = 0
CLASSIFICATION_TYPE = U
NORAD_CAT_ID   = 67468
ELEMENT_SET_NO = 999
REV_AT_EPOCH   = 442
BSTAR          = -.2274152E-1
MEAN_MOTION_DOT = -.2081089E-1
MEAN_MOTION_DDOT = 0

CCSDS_OMM_VERS = 2.0
CREATION_DATE  = 
ORIGINATOR     = 

OBJECT_NAME    = STARLINK-36441
OBJECT_ID      = 2026-008AA
CENTER_NAME    = EARTH
REF_FRAME      = TEME
TIME_SYSTEM    = UTC
MEAN_ELEMENT_THEORY = SGP/SGP4

EPOCH          = 2026-02-04T06:00:04.000320
MEAN_MOTION    = 15.62627167
ECCENTRICITY   = .00012621
INCLINATION    = 42.9999
RA_OF_ASC_NODE = 36.2148
ARG_OF_PERICENTER = 266.7873
MEAN_ANOMALY   = 83.5790

EPHEMERIS_TYPE = 0
CLASSIFICATION_TYPE = U
NORAD_CAT_ID   = 67469
ELEMENT_SET_NO = 999
REV_AT_EPOCH   = 442
BSTAR          = -.25802516E-1
MEAN_MOTION_DOT = -.2074219E-1
MEAN_MOTION_DDOT = 0

CCSDS_OMM_VERS = 2.0
CREATION_DATE  = 
ORIGINATOR     = 

OBJECT_NAME    = STARLINK-36454
OBJECT_ID      = 2026-008AB
CENTER_NAME    = EARTH
REF_FRAME      = TEME
TIME_SYSTEM    = UTC
MEAN_ELEMENT_THEORY = SGP/SGP4

EPOCH          = 2026-02-04T06:00:04.000320
MEAN_MOTION    = 15.64349114
ECCENTRICITY   = .00012554
INCLINATION    = 42.9998
RA_OF_ASC_NODE = 36.1708
ARG_OF_PERICENTER = 272.0720
MEAN_ANOMALY   = 96.1029

EPHEMERIS_TYPE = 0
CLASSIFICATION_TYPE = U
NORAD_CAT_ID   = 67470
ELEMENT_SET_NO = 999
REV_AT_EPOCH   = 442
BSTAR          = -.24137093E-1
MEAN_MOTION_DOT = -.2077753E-1
MEAN_MOTION_DDOT = 0

CCSDS_OMM_VERS = 2.0
CREATION_DATE  = 
ORIGINATOR     = 

OBJECT_NAME    = STARLINK-36334
OBJECT_ID      = 2026-008AC
CENTER_NAME    = EARTH
REF_FRAME      = TEME
TIME_SYSTEM    = UTC
MEAN_ELEMENT_THEORY = SGP/SGP4

EPOCH          = 2026-02-04T06:00:04.000320
MEAN_MOTION    = 15.67891988
ECCENTRICITY   = .00012054
INCLINATION    = 43.0002
RA_OF_ASC_NODE = 36.1179
ARG_OF_PERICENTER = 271.6559
MEAN_ANOMALY   = 118.0058

EPHEMERIS_TYPE = 0
CLASSIFICATION_TYPE = U
NORAD_CAT_ID   = 67471
ELEMENT_SET_NO = 999
REV_AT_EPOCH   = 442
BSTAR          = -.2094744E-1
MEAN_MOTION_DOT = -.2082743E-1
MEAN_MOTION_DDOT = 0

CCSDS_OMM_VERS = 2.0
CREATION_DATE  = 
ORIGINATOR     = 

OBJECT_NAME    = STARLINK-36269
OBJECT_ID      = 2026-008AD
CENTER_NAME    = EARTH
REF_FRAME      = TEME
TIME_SYSTEM    = UTC
MEAN_ELEMENT_THEORY = SGP/SGP4

EPOCH          = 2026-02-04T06:00:04.000320
MEAN_MOTION    = 15.65854140
ECCENTRICITY   = .00016023
INCLINATION    = 43.0001
RA_OF_ASC_NODE = 36.1342
ARG_OF_PERICENTER = 253.1932
MEAN_ANOMALY   = 129.3654

EPHEMERIS_TYPE = 0
CLASSIFICATION_TYPE = U
NORAD_CAT_ID   = 67472
ELEMENT_SET_NO = 999
REV_AT_EPOCH   = 444
BSTAR          = -.23062159E-1
MEAN_MOTION_DOT = -.2105923E-1
MEAN_MOTION_DDOT = 0

CCSDS_OMM_VERS = 2.0
CREATION_DATE  = 
ORIGINATOR     = 

OBJECT_NAME    = STARLINK-36408
OBJECT_ID      = 2026-008AE
CENTER_NAME    = EARTH
REF_FRAME      = TEME
TIME_SYSTEM    = UTC
MEAN_ELEMENT_THEORY = SGP/SGP4

EPOCH          = 2026-02-04T06:00:04.000320
MEAN_MOTION    = 15.63349865
ECCENTRICITY   = .00012567
INCLINATION    = 43.0000
RA_OF_ASC_NODE = 36.1773
ARG_OF_PERICENTER = 272.4533
MEAN_ANOMALY   = 92.4987

EPHEMERIS_TYPE = 0
CLASSIFICATION_TYPE = U
NORAD_CAT_ID   = 67473
ELEMENT_SET_NO = 999
REV_AT_EPOCH   = 444
BSTAR          = -.25140958E-1
MEAN_MOTION_DOT = -.2079154E-1
MEAN_MOTION_DDOT = 0

CCSDS_OMM_VERS = 2.0
CREATION_DATE  = 
ORIGINATOR     = 

OBJECT_NAME    = ALSAT-3A
OBJECT_ID      = 2026-009A
CENTER_NAME    = EARTH
REF_FRAME      = TEME
TIME_SYSTEM    = UTC
MEAN_ELEMENT_THEORY = SGP/SGP4

EPOCH          = 2026-02-04T07:29:35.094336
MEAN_MOTION    = 15.23371103
ECCENTRICITY   = .00121113
INCLINATION    = 97.4685
RA_OF_ASC_NODE = 109.9926
ARG_OF_PERICENTER = 185.1081
MEAN_ANOMALY   = 175.0034

EPHEMERIS_TYPE = 0
CLASSIFICATION_TYPE = U
NORAD_CAT_ID   = 67474
ELEMENT_SET_NO = 999
REV_AT_EPOCH   = 304
BSTAR          = .32423109E-3
MEAN_MOTION_DOT = .7653E-4
MEAN_MOTION_DDOT = 0

CCSDS_OMM_VERS = 2.0
CREATION_DATE  = 
ORIGINATOR     = 

OBJECT_NAME    = CZ-2C R/B
OBJECT_ID      = 2026-009B
CENTER_NAME    = EARTH
REF_FRAME      = TEME
TIME_SYSTEM    = UTC
MEAN_ELEMENT_THEORY = SGP/SGP4

EPOCH          = 2026-02-04T06:02:08.378304
MEAN_MOTION    = 15.03090371
ECCENTRICITY   = .01001901
INCLINATION    = 97.1770
RA_OF_ASC_NODE = 108.2552
ARG_OF_PERICENTER = 153.3090
MEAN_ANOMALY   = 207.3344

EPHEMERIS_TYPE = 0
CLASSIFICATION_TYPE = U
NORAD_CAT_ID   = 67475
ELEMENT_SET_NO = 999
REV_AT_EPOCH   = 305
BSTAR          = .2791729E-3
MEAN_MOTION_DOT = .4142E-4
MEAN_MOTION_DDOT = 0

CCSDS_OMM_VERS = 2.0
CREATION_DATE  = 
ORIGINATOR     = 

OBJECT_NAME    = TIANQI-37
OBJECT_ID      = 2026-010A
CENTER_NAME    = EARTH
REF_FRAME      = TEME
TIME_SYSTEM    = UTC
MEAN_ELEMENT_THEORY = SGP/SGP4

EPOCH          = 2026-02-04T07:40:10.869600
MEAN_MOTION    = 14.13524868
ECCENTRICITY   = .00130077
INCLINATION    = 44.9832
RA_OF_ASC_NODE = 314.6875
ARG_OF_PERICENTER = 49.8880
MEAN_ANOMALY   = 310.3096

EPHEMERIS_TYPE = 0
CLASSIFICATION_TYPE = U
NORAD_CAT_ID   = 67476
ELEMENT_SET_NO = 999
REV_AT_EPOCH   = 276
BSTAR          = .31513778E-3
MEAN_MOTION_DOT = .465E-5
MEAN_MOTION_DDOT = 0

CCSDS_OMM_VERS = 2.0
CREATION_DATE  = 
ORIGINATOR     = 

OBJECT_NAME    = TIANQI-38
OBJECT_ID      = 2026-010B
CENTER_NAME    = EARTH
REF_FRAME      = TEME
TIME_SYSTEM    = UTC
MEAN_ELEMENT_THEORY = SGP/SGP4

EPOCH          = 2026-02-04T07:35:19.839840
MEAN_MOTION    = 14.13902104
ECCENTRICITY   = .00118075
INCLINATION    = 44.9794
RA_OF_ASC_NODE = 314.6621
ARG_OF_PERICENTER = 55.0666
MEAN_ANOMALY   = 305.1280

EPHEMERIS_TYPE = 0
CLASSIFICATION_TYPE = U
NORAD_CAT_ID   = 67477
ELEMENT_SET_NO = 999
REV_AT_EPOCH   = 276
BSTAR          = .38855823E-3
MEAN_MOTION_DOT = .609E-5
MEAN_MOTION_DDOT = 0

